OBJECT_NAME,OBJECT_ID,EPOCH,MEAN_MOTION,ECCENTRICITY,INCLINATION,RA_OF_ASC_NODE,ARG_OF_PERICENTER,MEAN_ANOMALY,EPHEMERIS_TYPE,CLASSIFICATION_TYPE,NORAD_CAT_ID,ELEMENT_SET_NO,REV_AT_EPOCH,BSTAR,MEAN_MOTION_DOT,MEAN_MOTION_DDOT
CUTE-1 (CO-55),2003-031E,2026-06-06T11:59:55.616928,14.24329258,.0008851,98.6735,166.1932,210.1158,149.9513,0,U,27844,999,19015,.15775E-3,.321E-5,0
CUBESAT XI-IV (CO-57),2003-031J,2026-06-06T13:16:47.996256,14.23615194,.00084595,98.6767,165.9671,230.3427,129.7005,0,U,27848,999,18986,.13659001E-3,.268E-5,0
CUBESAT XI-V,2005-043F,2026-06-06T16:00:26.989056,14.72603733,.00130378,98.2975,313.0688,235.8954,124.1016,0,U,28895,999,10020,.26545796E-3,.1638E-4,0
CUTE-1.7+APD II (CO-65),2008-021C,2026-06-06T21:46:14.278080,15.09351948,.00104178,97.8270,139.1129,68.8999,291.3342,0,U,32785,999,98364,.3970552E-3,.628E-4,0
CANX-2,2008-021H,2026-06-06T20:29:32.889696,15.05542182,.00122209,97.8634,137.4322,81.4621,278.7990,0,U,32790,999,98325,.27460163E-3,.3894E-4,0
SEEDS II (CO-66),2008-021J,2026-06-06T13:23:59.906400,15.32385592,.00026017,97.7518,154.9517,35.3933,324.7480,0,U,32791,999,98566,.75009355E-3,.2342E-3,0
SWISSCUBE,2009-051B,2026-06-05T11:15:38.778912,14.62458715,.00054307,98.4043,64.1532,246.3597,113.7034,0,U,35932,999,88744,.23506342E-3,.1141E-4,0
ITUPSAT1,2009-051E,2026-06-06T16:28:28.183584,14.60425026,.00060968,98.4055,64.2519,273.4297,86.6205,0,U,35935,999,88720,.18172217E-3,.831E-5,0
AEROCUBE 4.5A,2012-048K,2026-06-06T02:32:04.174368,15.88053967,.00194857,64.6266,67.2252,215.0043,144.9836,0,U,38767,999,37089,.14146444E-2,.391799E-2,.62769086E-4
STRAND-1,2013-009E,2026-06-07T05:44:37.178880,14.37157528,.00074073,98.3920,338.7188,259.4438,100.5915,0,U,39090,999,69563,.12474484E-3,.328E-5,0
BRITE-AUSTRIA,2013-009F,2026-06-07T05:56:58.972128,14.36538233,.00089569,98.3993,337.9300,270.0657,89.9503,0,U,39091,999,69562,.84090392E-4,.204E-5,0
NEE-01 PEGASO,2013-018B,2026-06-07T03:35:46.946688,14.93612333,.00123934,98.1215,301.9695,190.8803,169.2150,0,U,39151,999,70920,.34659909E-3,.3603E-4,0
POPACS 2,2013-055E,2026-06-06T16:58:57.536832,14.90961161,.04172032,80.9909,156.1865,227.4609,129.0682,0,U,39269,999,66165,.24487262E-3,.14344E-3,0
POPACS 3,2013-055F,2026-06-06T22:46:32.483712,14.55925470,.05530144,81.0012,240.2844,101.1430,265.2435,0,U,39270,999,63706,.28966276E-3,.12298E-3,0
ZACUBE-1 (TSHEPISOSAT),2013-066B,2026-06-07T03:24:42.727680,15.01125110,.00399604,97.8099,120.4248,283.1130,76.5636,0,U,39417,999,67922,.34771774E-3,.4465E-4,0
WNISAT-1,2013-066H,2026-06-07T02:57:11.025792,14.58046944,.01616774,97.7192,307.9943,263.5474,94.7296,0,U,39423,999,66526,.14110787E-3,.725E-5,0
TRITON-1,2013-066M,2026-06-07T07:13:16.245408,14.81672910,.00883634,97.8247,68.3328,266.6501,92.4601,0,U,39427,999,67262,.40810972E-3,.3379E-4,0
GOMX-1,2013-066Q,2026-06-07T05:51:37.209024,14.69421746,.01301193,97.6490,359.3339,109.1354,252.3992,0,U,39430,999,66845,.32644775E-3,.215E-4,0
CUBEBUG-2 (LO-74),2013-066AA,2026-06-05T19:25:13.636704,14.93668030,.00594347,97.8908,105.7402,65.9901,294.7524,0,U,39440,999,67529,.51354385E-3,.556E-4,0
NEE-02 KRYSAOR,2013-066AB,2026-06-07T02:42:31.339008,14.86575916,.00676833,97.8888,97.4002,102.4485,258.4315,0,U,39441,999,67470,.29088638E-3,.263E-4,0
FUNCUBE-1 (AO-73),2013-066AE,2026-06-07T04:17:49.796448,15.09372001,.00346731,97.8278,129.4171,235.9808,123.8126,0,U,39444,999,67815,.47302019E-3,.7594E-4,0
UWE-3,2013-066AG,2026-06-06T15:42:38.626272,14.96941234,.00490307,97.8693,113.6587,356.7161,3.3731,0,U,39446,999,67600,.43621535E-3,.5074E-4,0
BRITE-CA1 (TORONTO),2014-033L,2026-06-06T15:24:50.450112,14.72662532,.0077539,97.9728,286.7655,311.3532,48.1023,0,U,40020,999,64066,.1274E-3,.796E-5,0
QB50P1,2014-033R,2026-06-07T06:19:40.705248,15.18108574,.00070816,98.0971,168.7150,255.6784,104.3662,0,U,40025,999,65152,.43536234E-3,.8812E-4,0
QB50P2,2014-033Y,2026-06-07T06:13:47.619552,15.15032533,.00069548,98.0757,154.5231,196.1630,163.9380,0,U,40032,999,65116,.42838425E-3,.7939E-4,0
PERSEUS-M2,2014-033AD,2026-06-07T05:27:42.441984,14.95487603,.00113685,97.9979,108.5663,342.0935,17.9883,0,U,40037,999,64929,.21232024E-3,.2292E-4,0
